STARLINK-1180           
1 45076U 20006AJ  22009.37294893 -.00000308  00000+0 -17762-5 0  9998
2 45076  53.0540 251.5863 0002201  63.1996 296.9217 15.06395577107596
STARLINK-1182           
1 45077U 20006AK  22008.91463919  .00301542  00000+0  33654-2 0  9992
2 45077  53.0544 212.5754 0002073  39.5290 320.5873 15.61275879108101
STARLINK-1177           
1 45078U 20006AL  22009.39137440 -.00000185  00000+0  64832-5 0  9998
2 45078  53.0556 251.5120 0001897  71.9594 288.1601 15.06395028107582
STARLINK-1149           
1 45079U 20006AM  22009.36926800  .00000956  00000+0  83144-4 0  9993
2 45079  53.0532 251.6037 0002282  59.3957 300.7257 15.06388733107580
STARLINK-1153           
1 45080U 20006AN  22009.37661939  .00001573  00000+0  12446-3 0  9997
2 45080  53.0538 251.5693 0002155  62.4888 297.6320 15.06406042107592
STARLINK-1151           
1 45081U 20006AP  22009.08913015 -.00000628  00000+0 -23225-4 0  9991
2 45081  53.0548 252.8742 0002224  59.6808 300.4400 15.06394076107551
STARLINK-1160           
1 45082U 20006AQ  22009.07807808  .00001318  00000+0  10736-3 0  9990
2 45082  53.0527 252.9028 0002219  63.4344 296.6872 15.06397444107549
STARLINK-1190           
1 45083U 20006AR  22009.44112055  .00001826  00000+0  14143-3 0  9995
2 45083  53.0551 271.2885 0002203  63.3009 296.8205 15.06407923107324
STARLINK-1173           
1 45084U 20006AS  22009.42272407  .00000759  00000+0  69882-4 0  9997
2 45084  53.0539 231.3644 0002251  62.0066 298.1150 15.06390009107884
STARLINK-1179           
1 45085U 20006AT  22009.41900498  .00001491  00000+0  11898-3 0  9992
2 45085  53.0533 231.3701 0002329  64.4293 295.6937 15.06410034107883
STARLINK-1181           
1 45086U 20006AU  22009.40763263  .00001935  00000+0  14389-3 0  9990
2 45086  53.0024 228.5020 0001893  80.6650 279.4553 15.07690109107814
STARLINK-1185           
1 45087U 20006AV  22009.33792627 -.00000927  00000+0 -43293-4 0  9998
2 45087  53.0536 231.7355 0002315  68.3393 291.7843 15.06392243107879
STARLINK-1183           
1 45088U 20006AW  22009.42640068  .00001061  00000+0  90131-4 0  9991
2 45088  53.0540 231.3575 0002247  67.5484 292.5742 15.06397157107888
STARLINK-1136           
1 45089U 20006AX  22009.42544333  .00000515  00000+0  53497-4 0  9997
2 45089  53.0578 231.3131 0002008  69.4350 290.6854 15.06401628107899
STARLINK-1176           
1 45090U 20006AY  22009.34530046  .00000798  00000+0  72485-4 0  9997
2 45090  53.0539 231.7101 0002537  63.3489 296.7760 15.06395223107876
STARLINK-1137           
1 45092U 20006BA  22009.31949160  .00001193  00000+0  99004-4 0  9993
2 45092  53.0541 231.8329 0002115  69.3875 290.7341 15.06397961107860
STARLINK-1142           
1 45093U 20006BB  22009.31582338  .00001136  00000+0  95177-4 0  9998
2 45093  53.0541 231.8445 0002190  68.9532 291.1691 15.06388348107860
STARLINK-1146           
1 45094U 20006BC  22009.33056020 -.00000854  00000+0 -38430-4 0  9992
2 45094  53.0552 231.7724 0002010  67.3509 292.7692 15.06387283107876
STARLINK-1147           
1 45095U 20006BD  22009.33424528 -.00000389  00000+0 -71801-5 0  9998
2 45095  53.0546 231.7697 0002241  65.6783 294.4440 15.06393398107874
STARLINK-1152           
1 45096U 20006BE  22009.32687539 -.00000966  00000+0 -45966-4 0  9994
2 45096  53.0542 231.8067 0002202  69.9366 290.1860 15.06391095107864
STARLINK-1184           
1 45098U 20006BG  22009.30844036  .00001572  00000+0  12446-3 0  9999
2 45098  53.0544 231.8864 0002076  69.2930 290.8281 15.06394698107868
STARLINK-1186           
1 45099U 20006BH  22009.34162116  .00000618  00000+0  60404-4 0  9994
2 45099  53.0552 231.7233 0002319  60.1711 299.9509 15.06396482107871
STARLINK-1193           
1 45100U 20006BJ  22009.30474384 -.00000056  00000+0  15165-4 0  9997
2 45100  53.0550 231.8780 0002306  68.0404 292.0829 15.06399675107867
STARLINK-1194           
1 45101U 20006BK  22009.30106823 -.00000133  00000+0  10016-4 0  9994
2 45101  53.0534 231.8987 0002141  70.3483 289.7737 15.06396931107862
STARLINK-1195           
1 45102U 20006BL  22009.32319774  .00001045  00000+0  89074-4 0  9990
2 45102  53.0546 231.8229 0002174  67.1841 292.9377 15.06387437107860
STARLINK-1196           
1 45103U 20006BM  22009.42174647  .00000765  00000+0  70237-4 0  9999
2 45103  53.0534 231.4419 0001854  72.8835 287.2357 15.06406397107889
ORBITAL FACTORY 2 (OF-2)
1 45113U 19071C   22009.47019806  .00009699  00000+0  26127-3 0  9993
2 45113  51.6407 116.9579 0010795 320.2384  39.7808 15.38448419108855
AEROCUBE 14A            
1 45114U 19071D   22009.59224504  .00009174  00000+0  24062-3 0  9994
2 45114  51.6397 114.7489 0009603 324.1004  35.9334 15.39360321108890
AEROCUBE 14B            
1 45116U 19071F   22009.58958350  .00009068  00000+0  23835-3 0  9997
2 45116  51.6393 114.7297 0009213 325.8546  34.1845 15.39309946108738
AEROCUBE 15B            
1 45117U 19071G   22009.67174428  .00010229  00000+0  26536-3 0  9996
2 45117  51.6402 113.0725 0009009 321.9137  38.1209 15.39561520108910
AEROCUBE 15A            
1 45118U 19071H   22009.58276941  .00009715  00000+0  25168-3 0  9998
2 45118  51.6397 113.2189 0009229 320.5281  39.5030 15.39666359108901
HUSKYSAT-1 (HO-107)     
1 45119U 19071J   22009.55472894  .00007979  00000+0  21823-3 0  9995
2 45119  51.6406 116.0092 0010297 316.8072  43.2104 15.38251871108867
VPM                     
1 45120U 19071K   22009.54370368  .00021166  00000+0  47075-3 0  9990
2 45120  51.6390 107.0930 0008902 323.3983  36.6394 15.43564649108870
CIRIS                   
1 45121U 19071L   22009.57293737  .00003053  00000+0  88066-4 0  9999
2 45121  51.6419 113.2189 0009673 317.8848  42.1392 15.38948489108795
MAKERSAT 1              
1 45122U 19071M   22009.55472910  .00015322  00000+0  36080-3 0  9990
2 45122  51.6392 109.3788 0008082 289.8395  70.1719 15.42105720108843
2019-071N               
1 45123U 19071N   22009.54981230  .00006773  00000+0  19021-3 0  9996
2 45123  51.6413 116.7365 0008837 287.5133  72.4884 15.37706345108431
2019-071P               
1 45124U 19071P   22009.47232116  .00020423  00000+0  47625-3 0  9990
2 45124  51.6396 109.5881 0008069 290.8714  69.1407 15.42179116108816
2019-071Q               
1 45125U 19071Q   22009.32369726  .00005766  00000+0  16616-3 0  9992
2 45125  51.6412 118.9502 0009059 284.6507  75.3472 15.37197294108688
ORCA-8                  
1 45126U 19071R   22009.50314711  .00027295  00000+0  57657-3 0  9998
2 45126  51.6399 104.6445 0008049 296.0569  63.9589 15.44942934108908
ONEWEB-0013             
1 45131U 20008A   22009.71126965 -.00000131  00000+0 -41679-3 0  9990
2 45131  87.9177  14.7177 0002461  81.6012 278.5393 13.09351145 94892
ONEWEB-0017             
1 45132U 20008B   22009.45734623 -.00000552  00000+0 -16171-2 0  9993
2 45132  87.8870 358.2849 0001390  95.1986 264.9300 13.10373317 95822
ONEWEB-0020             
1 45133U 20008C   22009.50253367  .00000434  00000+0  12061-2 0  9992
2 45133  87.8866 358.2646 0001975 114.2603 245.8731 13.10369764 96223
ONEWEB-0021             
1 45134U 20008D   22009.67084496 -.00000339  00000+0 -10066-2 0  9995
2 45134  87.8998 358.2485 0001866  82.5975 277.5365 13.10367618 97423
ONEWEB-0022             
1 45135U 20008E   22009.46668600 -.00000137  00000+0 -42772-3 0  9994
2 45135  87.8874 358.2706 0001571 102.8454 257.2849 13.10378814 96223
ONEWEB-0023             
1 45136U 20008F   22009.53058705 -.00000530  00000+0 -15535-2 0  9995
2 45136  87.8904 358.2115 0002486  83.5402 276.6008 13.10373572 95964
ONEWEB-0024             
1 45137U 20008G   22009.50099876  .00000728  00000+0  20501-2 0  9993
2 45137  87.8811 358.1577 0002008  72.7214 287.4133 13.10371258 96121
ONEWEB-0025             
1 45138U 20008H   22009.51968019 -.00000482  00000+0 -14172-2 0  9995
2 45138  87.8858 358.3098 0002021  85.0612 275.0746 13.10369881 96455
ONEWEB-0026             
1 45139U 20008J   22009.83578695 -.00110951  00000+0 -31838+0 0  9996
2 45139  87.8824 342.9697 0000965  80.4422 279.6814 13.11087930 99762
ONEWEB-0028             
1 45140U 20008K   22009.33080761 -.00091609  00000+0 -27296+0 0  9996
2 45140  87.4490 343.4697 0003968 115.0065 245.1473 13.08345729 96326
ONEWEB-0032             
1 45141U 20008L   22009.45889252 -.00000543  00000+0 -15911-2 0  9993
2 45141  87.8845 358.2899 0001657  81.3661 278.7654 13.10374958 96178
ONEWEB-0033             
1 45142U 20008M   22009.50878661  .00000336  00000+0  92543-3 0  9997
2 45142  87.8837 358.2146 0001640  85.9590 274.1724 13.10370841 96094
ONEWEB-0035             
1 45143U 20008N   22009.46514095 -.00000285  00000+0 -85265-3 0  9999
2 45143  87.8872 358.2950 0001893  93.7793 266.3551 13.10375170 95819
ONEWEB-0036             
1 45144U 20008P   22009.45577532 -.00000588  00000+0 -17211-2 0  9995
2 45144  87.8866 358.2536 0002086  87.0007 273.1359 13.10376132 96241
ONEWEB-0038             
1 45145U 20008Q   22009.45213124  .00000565  00000+0  15579-2 0  9998
2 45145  87.8911 343.0588 0001910  49.1083 311.0210 13.11415258 98031
ONEWEB-0039             
1 45146U 20008R   22009.66616753 -.00000116  00000+0 -36719-3 0  9991
2 45146  87.8864 358.2508 0001958  65.4855 294.6477 13.10369416 96840
ONEWEB-0040             
1 45147U 20008S   22009.65836898  .00000294  00000+0  80700-3 0  9999
2 45147  87.8864 358.2991 0001801  64.1635 295.9678 13.10370225 96551
ONEWEB-0043             
1 45149U 20008U   22009.50720360  .00000195  00000+0  52337-3 0  9996
2 45149  87.8865 358.2815 0002378  73.0883 287.0505 13.10376006 96063
ONEWEB-0044             
1 45150U 20008V   22009.46045045 -.00000456  00000+0 -13433-2 0  9998
2 45150  87.8870 358.2971 0002003  73.3216 286.8131 13.10374832 96351
ONEWEB-0045             
1 45151U 20008W   22009.84034949  .00000344  00000+0  93416-3 0  9996
2 45151  87.8865 343.0190 0001576  78.6082 281.5223 13.11414998 98944
